ONEWEB-0281             
1 48999U 21060AJ  26071.01823672  .00000086  00000+0  19104-3 0  9994
2 48999  87.9005 248.0957 0001525  98.6228 261.5075 13.16593850226842
ONEWEB-0282             
1 49000U 21060AK  26071.04831634 -.00000027  00000+0 -10548-3 0  9998
2 49000  87.9005 248.1003 0001790  98.5896 261.5438 13.16594152226820
ONEWEB-0283             
1 49001U 21060AL  26071.18922579  .00000090  00000+0  20069-3 0  9990
2 49001  87.9006 248.0721 0001687 101.9948 258.1373 13.16594630226854
ONEWEB-0284             
1 49002U 21060AM  26071.03090734  .00000019  00000+0  16957-4 0  9997
2 49002  87.9009 248.0949 0001930  90.9204 269.2148 13.16594154226813
ONEWEB-0285             
1 49075U 21075A   26071.23906204 -.00000359  00000+0 -10320-2 0  9998
2 49075  87.9006   9.9022 0001861  86.5223 273.6118 13.12442861222490
ONEWEB-0286             
1 49076U 21075B   26071.29738299  .00000084  00000+0  19760-3 0  9993
2 49076  87.8998   9.9176 0001690  74.1979 285.9336 13.12442652221856
ONEWEB-0287             
1 49077U 21075C   26071.27210542  .00000097  00000+0  21577-3 0  9991
2 49077  87.9158  25.1110 0001786  66.4480 293.6839 13.17648649220864
ONEWEB-0288             
1 49078U 21075D   26071.27381215  .00000505  00000+0  13695-2 0  9993
2 49078  87.9005   9.8902 0001866  77.1635 282.9702 13.12442760222474
ONEWEB-0289             
1 49079U 21075E   26071.31077227  .00000165  00000+0  39281-3 0  9996
2 49079  87.9160  25.1154 0002265  81.3526 278.7863 13.17647879221447
ONEWEB-0290             
1 49080U 21075F   26071.28392931  .00000052  00000+0  10017-3 0  9997
2 49080  87.9164  25.0893 0002410  86.6593 273.4814 13.17649767220856
ONEWEB-0291             
1 49081U 21075G   26071.26873648  .00000066  00000+0  13678-3 0  9996
2 49081  87.9164  25.1006 0002063  70.7528 289.3827 13.17648674220845
ONEWEB-0293             
1 49082U 21075H   26071.29405144  .00000126  00000+0  29192-3 0  9997
2 49082  87.9154  25.1063 0001994  79.4164 280.7192 13.17649191220870
ONEWEB-0294             
1 49083U 21075J   26071.28058932  .00000492  00000+0  13312-2 0  9998
2 49083  87.9008   9.8915 0002142  80.2301 279.9069 13.12441814221863
ONEWEB-0295             
1 49084U 21075K   26071.29320796  .00000122  00000+0  27999-3 0  9997
2 49084  87.9154  25.1110 0001927  70.0483 290.0856 13.17650206220838
ONEWEB-0296             
1 49085U 21075L   26071.26025022  .00000228  00000+0  59827-3 0  9991
2 49085  87.9011   9.8991 0001962  69.2382 290.8957 13.12444168221861
ONEWEB-0297             
1 49086U 21075M   26071.29075307  .00000201  00000+0  52472-3 0  9996
2 49086  87.8996   9.9176 0001787  76.7772 283.3556 13.12441179222479
ONEWEB-0298             
1 49087U 21075N   26071.29755375  .00000122  00000+0  27985-3 0  9990
2 49087  87.9153  25.1072 0001688  80.5902 279.5421 13.17648406220865
