[{"OBJECT_NAME":"ONEWEB-0281","OBJECT_ID":"2021-060AJ","EPOCH":"2026-03-12T00:26:15.652608","MEAN_MOTION":13.1659385,"ECCENTRICITY":0.00015255,"INCLINATION":87.9005,"RA_OF_ASC_NODE":248.0957,"ARG_OF_PERICENTER":98.6228,"MEAN_ANOMALY":261.5075,"EPHEMERIS_TYPE":0,"CLASSIFICATION_TYPE":"U","NORAD_CAT_ID":48999,"ELEMENT_SET_NO":999,"REV_AT_EPOCH":22684,"BSTAR":0.00019104277,"MEAN_MOTION_DOT":8.6e-7,"MEAN_MOTION_DDOT":0},{"OBJECT_NAME":"ONEWEB-0282","OBJECT_ID":"2021-060AK","EPOCH":"2026-03-12T01:09:34.531776","MEAN_MOTION":13.16594152,"ECCENTRICITY":0.00017903,"INCLINATION":87.9005,"RA_OF_ASC_NODE":248.1003,"ARG_OF_PERICENTER":98.5896,"MEAN_ANOMALY":261.5438,"EPHEMERIS_TYPE":0,"CLASSIFICATION_TYPE":"U","NORAD_CAT_ID":49000,"ELEMENT_SET_NO":999,"REV_AT_EPOCH":22682,"BSTAR":-0.00010548495,"MEAN_MOTION_DOT":-2.7e-7,"MEAN_MOTION_DDOT":0},{"OBJECT_NAME":"ONEWEB-0283","OBJECT_ID":"2021-060AL","EPOCH":"2026-03-12T04:32:29.108256","MEAN_MOTION":13.1659463,"ECCENTRICITY":0.00016877,"INCLINATION":87.9006,"RA_OF_ASC_NODE":248.0721,"ARG_OF_PERICENTER":101.9948,"MEAN_ANOMALY":258.1373,"EPHEMERIS_TYPE":0,"CLASSIFICATION_TYPE":"U","NORAD_CAT_ID":49001,"ELEMENT_SET_NO":999,"REV_AT_EPOCH":22685,"BSTAR":0.00020068937,"MEAN_MOTION_DOT":9.0e-7,"MEAN_MOTION_DDOT":0},{"OBJECT_NAME":"ONEWEB-0284","OBJECT_ID":"2021-060AM","EPOCH":"2026-03-12T00:44:30.394176","MEAN_MOTION":13.16594154,"ECCENTRICITY":0.000193,"INCLINATION":87.9009,"RA_OF_ASC_NODE":248.0949,"ARG_OF_PERICENTER":90.9204,"MEAN_ANOMALY":269.2148,"EPHEMERIS_TYPE":0,"CLASSIFICATION_TYPE":"U","NORAD_CAT_ID":49002,"ELEMENT_SET_NO":999,"REV_AT_EPOCH":22681,"BSTAR":1.6956877e-5,"MEAN_MOTION_DOT":1.9e-7,"MEAN_MOTION_DDOT":0},{"OBJECT_NAME":"ONEWEB-0285","OBJECT_ID":"2021-075A","EPOCH":"2026-03-12T05:44:14.960256","MEAN_MOTION":13.12442861,"ECCENTRICITY":0.00018612,"INCLINATION":87.9006,"RA_OF_ASC_NODE":9.9022,"ARG_OF_PERICENTER":86.5223,"MEAN_ANOMALY":273.6118,"EPHEMERIS_TYPE":0,"CLASSIFICATION_TYPE":"U","NORAD_CAT_ID":49075,"ELEMENT_SET_NO":999,"REV_AT_EPOCH":22249,"BSTAR":-0.0010320062,"MEAN_MOTION_DOT":-3.59e-6,"MEAN_MOTION_DDOT":0},{"OBJECT_NAME":"ONEWEB-0286","OBJECT_ID":"2021-075B","EPOCH":"2026-03-12T07:08:13.890336","MEAN_MOTION":13.12442652,"ECCENTRICITY":0.00016903,"INCLINATION":87.8998,"RA_OF_ASC_NODE":9.9176,"ARG_OF_PERICENTER":74.1979,"MEAN_ANOMALY":285.9336,"EPHEMERIS_TYPE":0,"CLASSIFICATION_TYPE":"U","NORAD_CAT_ID":49076,"ELEMENT_SET_NO":999,"REV_AT_EPOCH":22185,"BSTAR":0.00019760249,"MEAN_MOTION_DOT":8.4e-7,"MEAN_MOTION_DDOT":0},{"OBJECT_NAME":"ONEWEB-0287","OBJECT_ID":"2021-075C","EPOCH":"2026-03-12T06:31:49.908288","MEAN_MOTION":13.17648649,"ECCENTRICITY":0.00017865,"INCLINATION":87.9158,"RA_OF_ASC_NODE":25.111,"ARG_OF_PERICENTER":66.448,"MEAN_ANOMALY":293.6839,"EPHEMERIS_TYPE":0,"CLASSIFICATION_TYPE":"U","NORAD_CAT_ID":49077,"ELEMENT_SET_NO":999,"REV_AT_EPOCH":22086,"BSTAR":0.00021577099,"MEAN_MOTION_DOT":9.7e-7,"MEAN_MOTION_DDOT":0},{"OBJECT_NAME":"ONEWEB-0288","OBJECT_ID":"2021-075D","EPOCH":"2026-03-12T06:34:17.369760","MEAN_MOTION":13.1244276,"ECCENTRICITY":0.0001866,"INCLINATION":87.9005,"RA_OF_ASC_NODE":9.8902,"ARG_OF_PERICENTER":77.1635,"MEAN_ANOMALY":282.9702,"EPHEMERIS_TYPE":0,"CLASSIFICATION_TYPE":"U","NORAD_CAT_ID":49078,"ELEMENT_SET_NO":999,"REV_AT_EPOCH":22247,"BSTAR":0.0013694616,"MEAN_MOTION_DOT":5.05e-6,"MEAN_MOTION_DDOT":0},{"OBJECT_NAME":"ONEWEB-0289","OBJECT_ID":"2021-075E","EPOCH":"2026-03-12T07:27:30.724128","MEAN_MOTION":13.17647879,"ECCENTRICITY":0.00022659,"INCLINATION":87.916,"RA_OF_ASC_NODE":25.1154,"ARG_OF_PERICENTER":81.3526,"MEAN_ANOMALY":278.7863,"EPHEMERIS_TYPE":0,"CLASSIFICATION_TYPE":"U","NORAD_CAT_ID":49079,"ELEMENT_SET_NO":999,"REV_AT_EPOCH":22144,"BSTAR":0.00039281214,"MEAN_MOTION_DOT":1.65e-6,"MEAN_MOTION_DDOT":0},{"OBJECT_NAME":"ONEWEB-0290","OBJECT_ID":"2021-075F","EPOCH":"2026-03-12T06:48:51.492384","MEAN_MOTION":13.17649767,"ECCENTRICITY":0.00024106,"INCLINATION":87.9164,"RA_OF_ASC_NODE":25.0893,"ARG_OF_PERICENTER":86.6593,"MEAN_ANOMALY":273.4814,"EPHEMERIS_TYPE":0,"CLASSIFICATION_TYPE":"U","NORAD_CAT_ID":49080,"ELEMENT_SET_NO":999,"REV_AT_EPOCH":22085,"BSTAR":0.00010017142,"MEAN_MOTION_DOT":5.2e-7,"MEAN_MOTION_DDOT":0},{"OBJECT_NAME":"ONEWEB-0291","OBJECT_ID":"2021-075G","EPOCH":"2026-03-12T06:26:58.831872","MEAN_MOTION":13.17648674,"ECCENTRICITY":0.0002063,"INCLINATION":87.9164,"RA_OF_ASC_NODE":25.1006,"ARG_OF_PERICENTER":70.7528,"MEAN_ANOMALY":289.3827,"EPHEMERIS_TYPE":0,"CLASSIFICATION_TYPE":"U","NORAD_CAT_ID":49081,"ELEMENT_SET_NO":999,"REV_AT_EPOCH":22084,"BSTAR":0.00013678437,"MEAN_MOTION_DOT":6.6e-7,"MEAN_MOTION_DDOT":0},{"OBJECT_NAME":"ONEWEB-0293","OBJECT_ID":"2021-075H","EPOCH":"2026-03-12T07:03:26.044416","MEAN_MOTION":13.17649191,"ECCENTRICITY":0.00019942,"INCLINATION":87.9154,"RA_OF_ASC_NODE":25.1063,"ARG_OF_PERICENTER":79.4164,"MEAN_ANOMALY":280.7192,"EPHEMERIS_TYPE":0,"CLASSIFICATION_TYPE":"U","NORAD_CAT_ID":49082,"ELEMENT_SET_NO":999,"REV_AT_EPOCH":22087,"BSTAR":0.000291918,"MEAN_MOTION_DOT":1.26e-6,"MEAN_MOTION_DDOT":0},{"OBJECT_NAME":"ONEWEB-0294","OBJECT_ID":"2021-075J","EPOCH":"2026-03-12T06:44:02.917248","MEAN_MOTION":13.12441814,"ECCENTRICITY":0.00021426,"INCLINATION":87.9008,"RA_OF_ASC_NODE":9.8915,"ARG_OF_PERICENTER":80.2301,"MEAN_ANOMALY":279.9069,"EPHEMERIS_TYPE":0,"CLASSIFICATION_TYPE":"U","NORAD_CAT_ID":49083,"ELEMENT_SET_NO":999,"REV_AT_EPOCH":22186,"BSTAR":0.001331163,"MEAN_MOTION_DOT":4.92e-6,"MEAN_MOTION_DDOT":0},{"OBJECT_NAME":"ONEWEB-0295","OBJECT_ID":"2021-075K","EPOCH":"2026-03-12T07:02:13.167744","MEAN_MOTION":13.17650206,"ECCENTRICITY":0.00019276,"INCLINATION":87.9154,"RA_OF_ASC_NODE":25.111,"ARG_OF_PERICENTER":70.0483,"MEAN_ANOMALY":290.0856,"EPHEMERIS_TYPE":0,"CLASSIFICATION_TYPE":"U","NORAD_CAT_ID":49084,"ELEMENT_SET_NO":999,"REV_AT_EPOCH":22083,"BSTAR":0.00027998526,"MEAN_MOTION_DOT":1.22e-6,"MEAN_MOTION_DDOT":0},{"OBJECT_NAME":"ONEWEB-0296","OBJECT_ID":"2021-075L","EPOCH":"2026-03-12T06:14:45.619008","MEAN_MOTION":13.12444168,"ECCENTRICITY":0.00019623,"INCLINATION":87.9011,"RA_OF_ASC_NODE":9.8991,"ARG_OF_PERICENTER":69.2382,"MEAN_ANOMALY":290.8957,"EPHEMERIS_TYPE":0,"CLASSIFICATION_TYPE":"U","NORAD_CAT_ID":49085,"ELEMENT_SET_NO":999,"REV_AT_EPOCH":22186,"BSTAR":0.00059827216,"MEAN_MOTION_DOT":2.28e-6,"MEAN_MOTION_DDOT":0},{"OBJECT_NAME":"ONEWEB-0297","OBJECT_ID":"2021-075M","EPOCH":"2026-03-12T06:58:41.065248","MEAN_MOTION":13.12441179,"ECCENTRICITY":0.00017879,"INCLINATION":87.8996,"RA_OF_ASC_NODE":9.9176,"ARG_OF_PERICENTER":76.7772,"MEAN_ANOMALY":283.3556,"EPHEMERIS_TYPE":0,"CLASSIFICATION_TYPE":"U","NORAD_CAT_ID":49086,"ELEMENT_SET_NO":999,"REV_AT_EPOCH":22247,"BSTAR":0.00052471761,"MEAN_MOTION_DOT":2.01e-6,"MEAN_MOTION_DDOT":0},{"OBJECT_NAME":"ONEWEB-0298","OBJECT_ID":"2021-075N","EPOCH":"2026-03-12T07:08:28.644000","MEAN_MOTION":13.17648406,"ECCENTRICITY":0.00016886,"INCLINATION":87.9153,"RA_OF_ASC_NODE":25.1072,"ARG_OF_PERICENTER":80.5902,"MEAN_ANOMALY":279.5421,"EPHEMERIS_TYPE":0,"CLASSIFICATION_TYPE":"U","NORAD_CAT_ID":49087,"ELEMENT_SET_NO":999,"REV_AT_EPOCH":22086,"BSTAR":0.00027985194,"MEAN_MOTION_DOT":1.22e-6,"MEAN_MOTION_DDOT":0}]
